CCSDS_OMM_VERS = 2.0
CREATION_DATE  = 
ORIGINATOR     = 

OBJECT_NAME    = OKEAN-3
OBJECT_ID      = 1991-039A
CENTER_NAME    = EARTH
REF_FRAME      = TEME
TIME_SYSTEM    = UTC
MEAN_ELEMENT_THEORY = SGP/SGP4

EPOCH          = 2025-10-30T16:48:24.034752
MEAN_MOTION    = 15.03677811
ECCENTRICITY   = .00158262
INCLINATION    = 82.5135
RA_OF_ASC_NODE = 102.6912
ARG_OF_PERICENTER = 56.6011
MEAN_ANOMALY   = 303.6726

EPHEMERIS_TYPE = 0
CLASSIFICATION_TYPE = U
NORAD_CAT_ID   = 21397
ELEMENT_SET_NO = 999
REV_AT_EPOCH   = 84549
BSTAR          = .3201583E-3
MEAN_MOTION_DOT = .4423E-4
MEAN_MOTION_DDOT = 0

CCSDS_OMM_VERS = 2.0
CREATION_DATE  = 
ORIGINATOR     = 

OBJECT_NAME    = COSMOS 2151
OBJECT_ID      = 1991-042A
CENTER_NAME    = EARTH
REF_FRAME      = TEME
TIME_SYSTEM    = UTC
MEAN_ELEMENT_THEORY = SGP/SGP4

EPOCH          = 2025-10-30T18:49:14.530944
MEAN_MOTION    = 14.99451806
ECCENTRICITY   = .00137376
INCLINATION    = 82.4992
RA_OF_ASC_NODE = 208.8832
ARG_OF_PERICENTER = 132.2074
MEAN_ANOMALY   = 228.0319

EPHEMERIS_TYPE = 0
CLASSIFICATION_TYPE = U
NORAD_CAT_ID   = 21422
ELEMENT_SET_NO = 999
REV_AT_EPOCH   = 84372
BSTAR          = .21006948E-3
MEAN_MOTION_DOT = .2605E-4
MEAN_MOTION_DDOT = 0

CCSDS_OMM_VERS = 2.0
CREATION_DATE  = 
ORIGINATOR     = 

OBJECT_NAME    = SL-14 R/B
OBJECT_ID      = 1991-042B
CENTER_NAME    = EARTH
REF_FRAME      = TEME
TIME_SYSTEM    = UTC
MEAN_ELEMENT_THEORY = SGP/SGP4

EPOCH          = 2025-10-30T11:52:01.569504
MEAN_MOTION    = 14.81681097
ECCENTRICITY   = .00158506
INCLINATION    = 82.4938
RA_OF_ASC_NODE = 342.2804
ARG_OF_PERICENTER = 312.5932
MEAN_ANOMALY   = 47.3943

EPHEMERIS_TYPE = 0
CLASSIFICATION_TYPE = U
NORAD_CAT_ID   = 21423
ELEMENT_SET_NO = 999
REV_AT_EPOCH   = 83379
BSTAR          = .67576482E-4
MEAN_MOTION_DOT = .556E-5
MEAN_MOTION_DDOT = 0

CCSDS_OMM_VERS = 2.0
CREATION_DATE  = 
ORIGINATOR     = 

OBJECT_NAME    = ERS-1
OBJECT_ID      = 1991-050A
CENTER_NAME    = EARTH
REF_FRAME      = TEME
TIME_SYSTEM    = UTC
MEAN_ELEMENT_THEORY = SGP/SGP4

EPOCH          = 2025-10-30T21:57:27.243360
MEAN_MOTION    = 14.39315020
ECCENTRICITY   = .00312229
INCLINATION    = 98.7932
RA_OF_ASC_NODE = 313.8927
ARG_OF_PERICENTER = 225.9548
MEAN_ANOMALY   = 133.9067

EPHEMERIS_TYPE = 0
CLASSIFICATION_TYPE = U
NORAD_CAT_ID   = 21574
ELEMENT_SET_NO = 999
REV_AT_EPOCH   = 79706
BSTAR          = .16443001E-3
MEAN_MOTION_DOT = .467E-5
MEAN_MOTION_DDOT = 0

CCSDS_OMM_VERS = 2.0
CREATION_DATE  = 
ORIGINATOR     = 

OBJECT_NAME    = ARIANE 40 R/B
OBJECT_ID      = 1991-050F
CENTER_NAME    = EARTH
REF_FRAME      = TEME
TIME_SYSTEM    = UTC
MEAN_ELEMENT_THEORY = SGP/SGP4

EPOCH          = 2025-10-30T13:56:32.674272
MEAN_MOTION    = 14.42757418
ECCENTRICITY   = .00043528
INCLINATION    = 98.2229
RA_OF_ASC_NODE = 355.5562
ARG_OF_PERICENTER = 105.2443
MEAN_ANOMALY   = 254.9230

EPHEMERIS_TYPE = 0
CLASSIFICATION_TYPE = U
NORAD_CAT_ID   = 21610
ELEMENT_SET_NO = 999
REV_AT_EPOCH   = 80023
BSTAR          = .15551173E-3
MEAN_MOTION_DOT = .476E-5
MEAN_MOTION_DDOT = 0

CCSDS_OMM_VERS = 2.0
CREATION_DATE  = 
ORIGINATOR     = 

OBJECT_NAME    = INTERCOSMOS 25
OBJECT_ID      = 1991-086A
CENTER_NAME    = EARTH
REF_FRAME      = TEME
TIME_SYSTEM    = UTC
MEAN_ELEMENT_THEORY = SGP/SGP4

EPOCH          = 2025-10-30T16:50:48.710688
MEAN_MOTION    = 12.11547264
ECCENTRICITY   = .14889185
INCLINATION    = 82.6087
RA_OF_ASC_NODE = 28.5827
ARG_OF_PERICENTER = 37.1351
MEAN_ANOMALY   = 332.3903

EPHEMERIS_TYPE = 0
CLASSIFICATION_TYPE = U
NORAD_CAT_ID   = 21819
ELEMENT_SET_NO = 999
REV_AT_EPOCH   = 48094
BSTAR          = .31363011E-3
MEAN_MOTION_DOT = .1623E-4
MEAN_MOTION_DDOT = 0

CCSDS_OMM_VERS = 2.0
CREATION_DATE  = 
ORIGINATOR     = 

OBJECT_NAME    = SL-8 R/B
OBJECT_ID      = 1992-008B
CENTER_NAME    = EARTH
REF_FRAME      = TEME
TIME_SYSTEM    = UTC
MEAN_ELEMENT_THEORY = SGP/SGP4

EPOCH          = 2025-10-30T15:34:25.370400
MEAN_MOTION    = 13.75946316
ECCENTRICITY   = .0035764
INCLINATION    = 82.9302
RA_OF_ASC_NODE = 4.4949
ARG_OF_PERICENTER = 136.4385
MEAN_ANOMALY   = 16.7264

EPHEMERIS_TYPE = 0
CLASSIFICATION_TYPE = U
NORAD_CAT_ID   = 21876
ELEMENT_SET_NO = 999
REV_AT_EPOCH   = 69153
BSTAR          = .92343665E-4
MEAN_MOTION_DOT = .105E-5
MEAN_MOTION_DDOT = 0

CCSDS_OMM_VERS = 2.0
CREATION_DATE  = 
ORIGINATOR     = 

OBJECT_NAME    = SL-8 R/B
OBJECT_ID      = 1992-020B
CENTER_NAME    = EARTH
REF_FRAME      = TEME
TIME_SYSTEM    = UTC
MEAN_ELEMENT_THEORY = SGP/SGP4

EPOCH          = 2025-10-30T20:16:22.223424
MEAN_MOTION    = 13.75519657
ECCENTRICITY   = .00278801
INCLINATION    = 82.9295
RA_OF_ASC_NODE = 250.1694
ARG_OF_PERICENTER = 302.1810
MEAN_ANOMALY   = 86.3815

EPHEMERIS_TYPE = 0
CLASSIFICATION_TYPE = U
NORAD_CAT_ID   = 21938
ELEMENT_SET_NO = 999
REV_AT_EPOCH   = 68328
BSTAR          = .52706488E-4
MEAN_MOTION_DOT = .66E-6
MEAN_MOTION_DDOT = 0

CCSDS_OMM_VERS = 2.0
CREATION_DATE  = 
ORIGINATOR     = 

OBJECT_NAME    = USA 81
OBJECT_ID      = 1992-023A
CENTER_NAME    = EARTH
REF_FRAME      = TEME
TIME_SYSTEM    = UTC
MEAN_ELEMENT_THEORY = SGP/SGP4

EPOCH          = 2025-10-30T15:37:09.075072
MEAN_MOTION    = 14.32303114
ECCENTRICITY   = .0002759
INCLINATION    = 85.0116
RA_OF_ASC_NODE = 206.4182
ARG_OF_PERICENTER = 87.8268
MEAN_ANOMALY   = 272.3240

EPHEMERIS_TYPE = 0
CLASSIFICATION_TYPE = U
NORAD_CAT_ID   = 21949
ELEMENT_SET_NO = 999
REV_AT_EPOCH   = 7617
BSTAR          = .89791423E-4
MEAN_MOTION_DOT = .262E-5
MEAN_MOTION_DDOT = 0

CCSDS_OMM_VERS = 2.0
CREATION_DATE  = 
ORIGINATOR     = 

OBJECT_NAME    = COSMOS 2219
OBJECT_ID      = 1992-076A
CENTER_NAME    = EARTH
REF_FRAME      = TEME
TIME_SYSTEM    = UTC
MEAN_ELEMENT_THEORY = SGP/SGP4

EPOCH          = 2025-10-30T22:15:23.090976
MEAN_MOTION    = 14.14056841
ECCENTRICITY   = .00168681
INCLINATION    = 71.0593
RA_OF_ASC_NODE = 289.3251
ARG_OF_PERICENTER = 32.8203
MEAN_ANOMALY   = 327.3963

EPHEMERIS_TYPE = 0
CLASSIFICATION_TYPE = U
NORAD_CAT_ID   = 22219
ELEMENT_SET_NO = 999
REV_AT_EPOCH   = 70003
BSTAR          = .26076554E-3
MEAN_MOTION_DOT = .45E-5
MEAN_MOTION_DDOT = 0

CCSDS_OMM_VERS = 2.0
CREATION_DATE  = 
ORIGINATOR     = 

OBJECT_NAME    = SL-16 R/B
OBJECT_ID      = 1992-076B
CENTER_NAME    = EARTH
REF_FRAME      = TEME
TIME_SYSTEM    = UTC
MEAN_ELEMENT_THEORY = SGP/SGP4

EPOCH          = 2025-10-30T12:12:25.303680
MEAN_MOTION    = 14.16829103
ECCENTRICITY   = .00149524
INCLINATION    = 70.9978
RA_OF_ASC_NODE = 102.5937
ARG_OF_PERICENTER = 290.1614
MEAN_ANOMALY   = 126.7378

EPHEMERIS_TYPE = 0
CLASSIFICATION_TYPE = U
NORAD_CAT_ID   = 22220
ELEMENT_SET_NO = 999
REV_AT_EPOCH   = 70339
BSTAR          = .82894595E-4
MEAN_MOTION_DOT = .118E-5
MEAN_MOTION_DDOT = 0

CCSDS_OMM_VERS = 2.0
CREATION_DATE  = 
ORIGINATOR     = 

OBJECT_NAME    = COSMOS 2221
OBJECT_ID      = 1992-080A
CENTER_NAME    = EARTH
REF_FRAME      = TEME
TIME_SYSTEM    = UTC
MEAN_ELEMENT_THEORY = SGP/SGP4

EPOCH          = 2025-10-30T17:34:34.188960
MEAN_MOTION    = 14.95500549
ECCENTRICITY   = .00131537
INCLINATION    = 82.5061
RA_OF_ASC_NODE = 43.4723
ARG_OF_PERICENTER = 268.7108
MEAN_ANOMALY   = 91.2606

EPHEMERIS_TYPE = 0
CLASSIFICATION_TYPE = U
NORAD_CAT_ID   = 22236
ELEMENT_SET_NO = 999
REV_AT_EPOCH   = 76136
BSTAR          = .27193903E-3
MEAN_MOTION_DOT = .304E-4
MEAN_MOTION_DDOT = 0

