OKEAN-3                 
1 21397U 91039A   25303.70027818  .00004423  00000+0  32016-3 0  9997
2 21397  82.5135 102.6912 0015826  56.6011 303.6726 15.03677811845496
COSMOS 2151             
1 21422U 91042A   25303.78419596  .00002605  00000+0  21007-3 0  9994
2 21422  82.4992 208.8832 0013737 132.2074 228.0319 14.99451806843724
SL-14 R/B               
1 21423U 91042B   25303.49446261  .00000556  00000+0  67576-4 0  9997
2 21423  82.4938 342.2804 0015850 312.5932  47.3943 14.81681097833790
ERS-1                   
1 21574U 91050A   25303.91489865  .00000467  00000+0  16443-3 0  9994
2 21574  98.7932 313.8927 0031222 225.9548 133.9067 14.39315020797063
ARIANE 40 R/B           
1 21610U 91050F   25303.58093373  .00000476  00000+0  15551-3 0  9992
2 21610  98.2229 355.5562 0004352 105.2443 254.9230 14.42757418800239
INTERCOSMOS 25          
1 21819U 91086A   25303.70195267  .00001623  00000+0  31363-3 0  9995
2 21819  82.6087  28.5827 1488918  37.1351 332.3903 12.11547264480946
SL-8 R/B                
1 21876U 92008B   25303.64890475  .00000105  00000+0  92344-4 0  9990
2 21876  82.9302   4.4949 0035764 136.4385  16.7264 13.75946316691530
SL-8 R/B                
1 21938U 92020B   25303.84470166  .00000066  00000+0  52706-4 0  9990
2 21938  82.9295 250.1694 0027880 302.1810  86.3815 13.75519657683284
USA 81                  
1 21949U 92023A   25303.65079948  .00000262  00000+0  89791-4 0  9999
2 21949  85.0116 206.4182 0002759  87.8268 272.3240 14.32303114 76176
COSMOS 2219             
1 22219U 92076A   25303.92735059  .00000450  00000+0  26077-3 0  9996
2 22219  71.0593 289.3251 0016868  32.8203 327.3963 14.14056841700037
SL-16 R/B               
1 22220U 92076B   25303.50862620  .00000118  00000+0  82895-4 0  9999
2 22220  70.9978 102.5937 0014952 290.1614 126.7378 14.16829103703392
COSMOS 2221             
1 22236U 92080A   25303.73234015  .00003040  00000+0  27194-3 0  9994
2 22236  82.5061  43.4723 0013153 268.7108  91.2606 14.95500549761366
